[{"OBJECT_NAME":"ETRSS-1","OBJECT_ID":"2019-093B","EPOCH":"2026-03-09T22:36:35.084736","MEAN_MOTION":14.95232474,"ECCENTRICITY":0.00120616,"INCLINATION":97.7844,"RA_OF_ASC_NODE":153.9141,"ARG_OF_PERICENTER":31.3849,"MEAN_ANOMALY":328.8089,"EPHEMERIS_TYPE":0,"CLASSIFICATION_TYPE":"U","NORAD_CAT_ID":44880,"ELEMENT_SET_NO":999,"REV_AT_EPOCH":33722,"BSTAR":0.00018246379,"MEAN_MOTION_DOT":1.951e-5,"MEAN_MOTION_DDOT":0},{"OBJECT_NAME":"STARLINK-32895","OBJECT_ID":"2025-037E","EPOCH":"2026-03-09T22:15:33.015744","MEAN_MOTION":14.98328804,"ECCENTRICITY":0.00026086,"INCLINATION":70.003,"RA_OF_ASC_NODE":354.0166,"ARG_OF_PERICENTER":264.7372,"MEAN_ANOMALY":95.3489,"EPHEMERIS_TYPE":0,"CLASSIFICATION_TYPE":"U","NORAD_CAT_ID":63081,"ELEMENT_SET_NO":999,"REV_AT_EPOCH":5849,"BSTAR":0.0004794443,"MEAN_MOTION_DOT":5.632e-5,"MEAN_MOTION_DDOT":0}]
